ONEWEB-0656             
1 55817U 23029X   25231.84356581 -.00001923  00000+0 -47630-2 0  9993
2 55817  87.9300 334.4753 0002378 108.8395 251.2997 13.20780882122052
ONEWEB-0657             
1 55818U 23029Y   25231.39794688 -.00000023  00000+0 -89307-4 0  9997
2 55818  87.9260   4.9872 0001573 123.5847 236.5436 13.19722442119103
ONEWEB-0658             
1 55819U 23029Z   25231.39322538  .00000116  00000+0  25670-3 0  9992
2 55819  87.9268   4.9232 0001522  83.5735 276.5571 13.19725781119111
ONEWEB-0660             
1 55820U 23029AA  25231.39576825  .00000241  00000+0  61592-3 0  9996
2 55820  87.9088 349.7480 0001978  89.4995 270.6362 13.14502782119758
ONEWEB-0661             
1 55821U 23029AB  25231.35453044 -.00000113  00000+0 -33973-3 0  9992
2 55821  87.9089 349.8279 0002101  90.8458 269.2913 13.14503263119735
ONEWEB-0662             
1 55822U 23029AC  25231.31330003  .00000177  00000+0  44242-3 0  9997
2 55822  87.9088 349.8430 0001892  87.7037 272.4309 13.14503020119778
ONEWEB-0663             
1 55823U 23029AD  25231.29103963  .00000029  00000+0  38541-4 0  9990
2 55823  87.9312 334.6414 0001885  85.5821 274.5527 13.20843510121295
ONEWEB-0664             
1 55824U 23029AE  25231.30064407  .00000081  00000+0  16670-3 0  9998
2 55824  87.9304 334.6608 0002336  97.9411 262.1987 13.20774037121296
